NORAD_CAT_ID,OBJECT_NAME,OBJECT_TYPE,EPOCH,MEAN_MOTION,ECCENTRICITY,INCLINATION,RA_OF_ASC_NODE,ARG_OF_PERICENTER,MEAN_ANOMALY,BSTAR,MEAN_MOTION_DOT,MEAN_MOTION_DDOT,TLE_LINE0,TLE_LINE1,TLE_LINE2,SEMIMAJOR_AXIS,PERIOD,APOGEE,PERIGEE,DECAYED
51968.0,STARLINK-3681,PAYLOAD,2024-02-24 04:22:15,15.06391156,0.0001559,53.0553,129.1552,99.0094,261.1072,0.00012395,1.565e-05,0.0,0 STARLINK-3681,1 51968U 22025N   24055.18211882  .00001565  00000-0  12395-3 0  9997,2 51968  53.0553 129.1552 0001559  99.0094 261.1072 15.06391156109868,6925.376,95.593,548.32,546.161,0.0
51968.0,STARLINK-3681,PAYLOAD,2024-02-24 12:19:57,15.06386446,0.000195,53.0554,127.6663,104.2819,255.8387,0.00017519,2.328e-05,0.0,0 STARLINK-3681,1 51968U 22025N   24055.51385703  .00002328  00000-0  17519-3 0  9999,2 51968  53.0554 127.6663 0001950 104.2819 255.8387 15.06386446108813,6925.39,95.593,548.606,545.905,0.0
51968.0,STARLINK-3681,PAYLOAD,2024-02-25 10:37:29,15.06402916,0.0001531,53.0553,123.4964,92.1564,267.96,7.0064e-05,7.62e-06,0.0,0 STARLINK-3681,1 51968U 22025N   24056.44270409  .00000762  00000-0  70064-4 0  9993,2 51968  53.0553 123.4964 0001531  92.1564 267.9600 15.06402916110059,6925.34,95.592,548.265,546.144,0.0
51968.0,STARLINK-3681,PAYLOAD,2024-02-25 13:48:33,15.06411528,0.0001622,53.0549,122.8989,96.7597,263.3577,0.00013035,1.661e-05,0.0,0 STARLINK-3681,1 51968U 22025N   24056.57539041  .00001661  00000-0  13035-3 0  9990,2 51968  53.0549 122.8989 0001622  96.7597 263.3577 15.06411528108971,6925.313,95.591,548.302,546.055,0.0
51968.0,STARLINK-3681,PAYLOAD,2024-02-25 21:46:16,15.06394896,0.0001839,53.0558,121.4116,85.5547,274.5652,2.6531e-05,1.14e-06,0.0,0 STARLINK-3681,1 51968U 22025N   24056.90713890  .00000114  00000-0  26531-4 0  9991,2 51968  53.0558 121.4116 0001839  85.5547 274.5652 15.06394896109022,6925.364,95.592,548.503,545.956,0.0
51968.0,STARLINK-3681,PAYLOAD,2024-02-26 04:08:26,15.06391164,0.0001693,53.0551,120.2197,88.4189,271.6994,9.0689e-05,1.069e-05,0.0,0 STARLINK-3681,1 51968U 22025N   24057.17252762  .00001069  00000-0  90689-4 0  9992,2 51968  53.0551 120.2197 0001693  88.4189 271.6994 15.06391164110162,6925.376,95.593,548.413,546.068,0.0
51968.0,STARLINK-3681,PAYLOAD,2024-02-26 10:30:35,15.06393966,0.000159,53.0558,119.0283,88.5506,271.5665,6.1028e-05,6.27e-06,0.0,0 STARLINK-3681,1 51968U 22025N   24057.43791527  .00000627  00000-0  61028-4 0  9992,2 51968  53.0558 119.0283 0001590  88.5506 271.5665 15.06393966109109,6925.367,95.593,548.333,546.131,0.0
51968.0,STARLINK-3681,PAYLOAD,2024-02-27 04:01:31,15.06399439,0.0001606,53.0569,115.7515,94.7942,265.323,0.00014331,1.854e-05,0.0,0 STARLINK-3681,1 51968U 22025N   24058.16772474  .00001854  00000-0  14331-3 0  9990,2 51968  53.0569 115.7515 0001606  94.7942 265.3230 15.06399439110318,6925.35,95.592,548.327,546.103,0.0
51968.0,STARLINK-3681,PAYLOAD,2024-02-27 10:23:40,15.06406605,0.0001573,53.0545,114.5606,92.5124,267.6045,0.0001492,1.942e-05,0.0,0 STARLINK-3681,1 51968U 22025N   24058.43311026  .00001942  00000-0  14920-3 0  9994,2 51968  53.0545 114.5606 0001573  92.5124 267.6045 15.06406605109255,6925.328,95.592,548.283,546.104,0.0
51968.0,STARLINK-3681,PAYLOAD,2024-02-28 10:16:46,15.06401049,0.0001634,53.0543,110.0924,95.5907,264.5268,0.00016321,2.15e-05,0.0,0 STARLINK-3681,1 51968U 22025N   24059.42831495  .00002150  00000-0  16321-3 0  9990,2 51968  53.0543 110.0924 0001634  95.5907 264.5268 15.06401049110507,6925.345,95.592,548.342,546.079,0.0
51968.0,STARLINK-3681,PAYLOAD,2024-02-28 13:27:50,15.06403638,0.0001657,53.0544,109.4964,96.132,263.9858,0.00015726,2.062e-05,0.0,0 STARLINK-3681,1 51968U 22025N   24059.56100663  .00002062  00000-0  15726-3 0  9991,2 51968  53.0544 109.4964 0001657  96.1320 263.9858 15.06403638109428,6925.337,95.592,548.35,546.055,0.0
51968.0,STARLINK-3681,PAYLOAD,2024-02-28 19:50:00,15.06399593,0.0001534,53.0533,108.3037,87.0399,273.0766,4.3259e-05,3.63e-06,0.0,0 STARLINK-3681,1 51968U 22025N   24059.82639566  .00000363  00000-0  43259-4 0  9994,2 51968  53.0533 108.3037 0001534  87.0399 273.0766 15.06399593109462,6925.35,95.592,548.277,546.152,0.0
51968.0,STARLINK-3681,PAYLOAD,2024-02-29 03:47:42,15.06396191,0.0001585,53.0558,106.8147,99.1132,261.0037,-9.2488e-06,-4.19e-06,0.0,0 STARLINK-3681,1 51968U 22025N   24060.15813603 -.00000419  00000-0 -92488-5 0  9991,2 51968  53.0558 106.8147 0001585  99.1132 261.0037 15.06396191110617,6925.36,95.592,548.323,546.128,0.0
51968.0,STARLINK-3681,PAYLOAD,2024-02-29 10:09:52,15.06396892,0.0001614,53.0561,105.6264,102.3862,257.7308,1.9033e-05,2e-08,0.0,0 STARLINK-3681,1 51968U 22025N   24060.42352232  .00000002  00000-0  19033-4 0  9997,2 51968  53.0561 105.6264 0001614 102.3862 257.7308 15.06396892109550,6925.358,95.592,548.341,546.105,0.0
51968.0,STARLINK-3681,PAYLOAD,2024-02-29 19:43:06,15.06396962,0.0001671,53.0563,103.8394,100.5775,259.5402,-3.4224e-05,-7.91e-06,0.0,0 STARLINK-3681,1 51968U 22025N   24060.82160409 -.00000791  00000-0 -34224-4 0  9990,2 51968  53.0563 103.8394 0001671 100.5775 259.5402 15.06396962109612,6925.358,95.592,548.38,546.066,0.0
51968.0,STARLINK-3681,PAYLOAD,2024-03-01 08:27:25,15.06397978,0.0001691,53.0551,101.4551,109.0709,251.0463,6.502e-05,6.87e-06,0.0,0 STARLINK-3681,1 51968U 22025N   24061.35237763  .00000687  00000-0  65020-4 0  9997,2 51968  53.0551 101.4551 0001691 109.0709 251.0463 15.06397978110794,6925.355,95.592,548.391,546.049,0.0
51968.0,STARLINK-3681,PAYLOAD,2024-03-01 19:36:11,15.06401247,0.0001524,53.0549,99.3705,95.0169,265.0994,8.9724e-05,1.055e-05,0.0,0 STARLINK-3681,1 51968U 22025N   24061.81680311  .00001055  00000-0  89724-4 0  9996,2 51968  53.0549  99.3705 0001524  95.0169 265.0994 15.06401247109760,6925.345,95.592,548.265,546.154,0.0
51968.0,STARLINK-3681,PAYLOAD,2024-03-02 09:56:02,15.06405706,0.0001544,53.0547,96.6896,93.3688,266.7478,0.00018452,2.468e-05,0.0,0 STARLINK-3681,1 51968U 22025N   24062.41392068  .00002468  00000-0  18452-3 0  9990,2 51968  53.0547  96.6896 0001544  93.3688 266.7478 15.06405706110950,6925.331,95.592,548.265,546.127,0.0
51968.0,STARLINK-3681,PAYLOAD,2024-03-03 08:13:36,15.06397431,0.0001658,53.0558,92.5194,91.1751,268.9427,8.3203e-05,9.58e-06,0.0,0 STARLINK-3681,1 51968U 22025N   24063.34278615  .00000958  00000-0  83203-4 0  9993,2 51968  53.0558  92.5194 0001658  91.1751 268.9427 15.06397431111090,6925.356,95.592,548.37,546.073,0.0
51968.0,STARLINK-3681,PAYLOAD,2024-03-04 01:44:32,15.06407347,0.0001742,53.0557,89.2415,91.7064,268.4125,3.7217e-05,2.73e-06,0.0,0 STARLINK-3681,1 51968U 22025N   24064.07259502  .00000273  00000-0  37217-4 0  9992,2 51968  53.0557  89.2415 0001742  91.7064 268.4125 15.06407347111206,6925.326,95.592,548.397,545.985,0.0
51968.0,STARLINK-3681,PAYLOAD,2024-03-04 08:06:41,15.06411594,0.0001677,53.0548,88.0535,87.3499,272.7682,0.00010307,1.254e-05,0.0,0 STARLINK-3681,1 51968U 22025N   24064.33798007  .00001254  00000-0  10307-3 0  9999,2 51968  53.0548  88.0535 0001677  87.3499 272.7682 15.06411594110143,6925.313,95.591,548.339,546.017,0.0
51968.0,STARLINK-3681,PAYLOAD,2024-03-05 07:59:48,15.06389362,0.0001571,53.0539,83.5847,80.0375,280.0791,-9.6857e-06,-4.26e-06,0.0,0 STARLINK-3681,1 51968U 22025N   24065.33319658 -.00000426  00000-0 -96857-5 0  9999,2 51968  53.0539  83.5847 0001571  80.0375 280.0791 15.06389362110291,6925.381,95.593,548.334,546.158,0.0
51968.0,STARLINK-3681,PAYLOAD,2024-03-05 17:33:02,15.06393384,0.0001548,53.0541,81.7939,83.9791,276.1375,8.234e-05,9.45e-06,0.0,0 STARLINK-3681,1 51968U 22025N   24065.73127752  .00000945  00000-0  82340-4 0  9990,2 51968  53.0541  81.7939 0001548  83.9791 276.1375 15.06393384111456,6925.369,95.593,548.306,546.162,0.0
51968.0,STARLINK-3681,PAYLOAD,2024-03-06 04:41:48,15.06401169,0.0001509,53.054,79.7111,99.8926,260.2233,0.00018058,2.409e-05,0.0,0 STARLINK-3681,1 51968U 22025N   24066.19570300  .00002409  00000-0  18058-3 0  9993,2 51968  53.0540  79.7111 0001509  99.8926 260.2233 15.06401169110421,6925.345,95.592,548.255,546.165,0.0
51968.0,STARLINK-3681,PAYLOAD,2024-03-07 09:21:31,15.06397264,0.0001588,53.0541,74.3498,99.5528,260.5641,0.00020652,2.796e-05,0.0,0 STARLINK-3681,1 51968U 22025N   24067.38995059  .00002796  00000-0  20652-3 0  9999,2 51968  53.0541  74.3498 0001588  99.5528 260.5641 15.06397264110609,6925.357,95.592,548.322,546.122,0.0
51968.0,STARLINK-3681,PAYLOAD,2024-03-08 09:14:36,15.06405503,0.0001544,53.0544,69.8816,102.1905,257.9257,0.00021828,2.972e-05,0.0,0 STARLINK-3681,1 51968U 22025N   24068.38514948  .00002972  00000-0  21828-3 0  9996,2 51968  53.0544  69.8816 0001544 102.1905 257.9257 15.06405503110752,6925.332,95.592,548.266,546.127,0.0
51968.0,STARLINK-3681,PAYLOAD,2024-03-08 17:12:19,15.06397371,0.0001622,53.0549,68.39,91.3988,268.7186,8.5457e-05,9.91e-06,0.0,0 STARLINK-3681,1 51968U 22025N   24068.71688772  .00000991  00000-0  85457-4 0  9998,2 51968  53.0549  68.3900 0001622  91.3988 268.7186 15.06397371111904,6925.357,95.592,548.345,546.098,0.0
51968.0,STARLINK-3681,PAYLOAD,2024-03-09 09:07:42,15.06403421,0.0001506,53.0553,65.4124,90.0523,270.0638,0.00023189,3.174e-05,0.0,0 STARLINK-3681,1 51968U 22025N   24069.38035341  .00003174  00000-0  23189-3 0  9999,2 51968  53.0553  65.4124 0001506  90.0523 270.0638 15.06403421110908,6925.338,95.592,548.246,546.16,0.0
51968.0,STARLINK-3681,PAYLOAD,2024-03-09 17:05:24,15.0640129,0.0001523,53.0542,63.9234,92.9855,267.1309,9.9179e-05,1.196e-05,0.0,0 STARLINK-3681,1 51968U 22025N   24069.71208816  .00001196  00000-0  99179-4 0  9990,2 51968  53.0542  63.9234 0001523  92.9855 267.1309 15.06401290110958,6925.345,95.592,548.264,546.155,0.0
51968.0,STARLINK-3681,PAYLOAD,2024-03-10 04:14:10,15.06405222,0.0001532,53.0559,61.837,97.1252,262.9911,0.00017692,2.355e-05,0.0,0 STARLINK-3681,1 51968U 22025N   24070.17651305  .00002355  00000-0  17692-3 0  9994,2 51968  53.0559  61.8370 0001532  97.1252 262.9911 15.06405222112124,6925.333,95.592,548.259,546.137,0.0
